HULIANWANG DIGUI-01     
1 62323U 24240A   26063.59069423  .00000070  00000+0  12846-3 0  9993
2 62323  86.5029  18.5004 0001942  86.1344 274.0012 13.24420477 58797
HULIANWANG DIGUI-02     
1 62324U 24240B   26063.59815633  .00000063  00000+0  11148-3 0  9992
2 62324  86.5058  18.6276 0001867  89.7568 270.3780 13.24422087 58807
HULIANWANG DIGUI-03     
1 62325U 24240C   26063.58302358  .00000061  00000+0  10902-3 0  9992
2 62325  86.5011  18.4227 0002016  85.1236 275.0129 13.24422021 58795
HULIANWANG DIGUI-04     
1 62326U 24240D   26063.57550179  .00000051  00000+0  83767-4 0  9997
2 62326  86.5020  18.4568 0002055  85.5871 274.5498 13.24421683 58792
HULIANWANG DIGUI-05     
1 62327U 24240E   26063.56799486  .00000048  00000+0  76781-4 0  9997
2 62327  86.5072  18.6785 0002080  84.6828 275.4543 13.24420957 58797
HULIANWANG DIGUI-06     
1 62328U 24240F   26063.62833387  .00000026  00000+0  26829-4 0  9998
2 62328  86.5011  18.3773 0002029  89.0918 271.0449 13.24422878 58800
HULIANWANG DIGUI-07     
1 62329U 24240G   26063.62087508  .00000025  00000+0  23737-4 0  9999
2 62329  86.4982  18.2482 0002010  87.3214 272.8150 13.24421010 58808
HULIANWANG DIGUI-08     
1 62330U 24240H   26063.56045672  .00000034  00000+0  44899-4 0  9992
2 62330  86.5064  18.6384 0002125  86.0370 274.1007 13.24420865 58794
HULIANWANG DIGUI-09     
1 62331U 24240J   26063.61324937  .00000031  00000+0  37766-4 0  9995
2 62331  86.5031  18.5161 0001962  89.2062 270.9297 13.24422243 58799
HULIANWANG DIGUI-10     
1 62332U 24240K   26063.60573479  .00000047  00000+0  74880-4 0  9997
2 62332  86.5061  18.6409 0001961  91.3046 268.8313 13.24421639 58797
HULIANWANG DIGUI-11     
1 62971U 25030A   26063.58552555 -.00000088  00000+0  78332-4 0  9995
2 62971  49.9992 251.0054 0000750 165.5809 194.5085 13.29337713 51942
HULIANWANG DIGUI-12     
1 62972U 25030B   26063.59376730 -.00000091  00000+0  72193-4 0  9999
2 62972  50.0008 251.0948 0000882 160.1332 199.9575 13.29339892 51947
HULIANWANG DIGUI-13     
1 62973U 25030C   26063.57714019 -.00000091  00000+0  71943-4 0  9996
2 62973  50.0011 251.0200 0000708 151.5323 208.5588 13.29337824 51948
HULIANWANG DIGUI-14     
1 62974U 25030D   26063.55213909 -.00000088  00000+0  77180-4 0  9992
2 62974  50.0017 250.9078 0000804 151.7135 208.3781 13.29337669 51946
HULIANWANG DIGUI-15     
1 62975U 25030E   26063.56882221 -.00000087  00000+0  80127-4 0  9997
2 62975  50.0012 250.9794 0000677 157.9359 202.1542 13.29337802 51947
HULIANWANG DIGUI-16     
1 62976U 25030F   26063.54373577 -.00000094  00000+0  65753-4 0  9991
2 62976  50.0034 250.9169 0000797 148.5994 211.4926 13.29338376 51948
