[{"OBJECT_NAME":"HULIANWANG DIGUI-01","OBJECT_ID":"2024-240A","EPOCH":"2026-03-04T14:10:35.981472","MEAN_MOTION":13.24420477,"ECCENTRICITY":0.0001942,"INCLINATION":86.5029,"RA_OF_ASC_NODE":18.5004,"ARG_OF_PERICENTER":86.1344,"MEAN_ANOMALY":274.0012,"EPHEMERIS_TYPE":0,"CLASSIFICATION_TYPE":"U","NORAD_CAT_ID":62323,"ELEMENT_SET_NO":999,"REV_AT_EPOCH":5879,"BSTAR":0.0001284621,"MEAN_MOTION_DOT":7.0e-7,"MEAN_MOTION_DDOT":0},{"OBJECT_NAME":"HULIANWANG DIGUI-02","OBJECT_ID":"2024-240B","EPOCH":"2026-03-04T14:21:20.706912","MEAN_MOTION":13.24422087,"ECCENTRICITY":0.00018674,"INCLINATION":86.5058,"RA_OF_ASC_NODE":18.6276,"ARG_OF_PERICENTER":89.7568,"MEAN_ANOMALY":270.378,"EPHEMERIS_TYPE":0,"CLASSIFICATION_TYPE":"U","NORAD_CAT_ID":62324,"ELEMENT_SET_NO":999,"REV_AT_EPOCH":5880,"BSTAR":0.00011147599,"MEAN_MOTION_DOT":6.3e-7,"MEAN_MOTION_DDOT":0},{"OBJECT_NAME":"HULIANWANG DIGUI-03","OBJECT_ID":"2024-240C","EPOCH":"2026-03-04T13:59:33.237312","MEAN_MOTION":13.24422021,"ECCENTRICITY":0.00020167,"INCLINATION":86.5011,"RA_OF_ASC_NODE":18.4227,"ARG_OF_PERICENTER":85.1236,"MEAN_ANOMALY":275.0129,"EPHEMERIS_TYPE":0,"CLASSIFICATION_TYPE":"U","NORAD_CAT_ID":62325,"ELEMENT_SET_NO":999,"REV_AT_EPOCH":5879,"BSTAR":0.00010902477,"MEAN_MOTION_DOT":6.1e-7,"MEAN_MOTION_DDOT":0},{"OBJECT_NAME":"HULIANWANG DIGUI-04","OBJECT_ID":"2024-240D","EPOCH":"2026-03-04T13:48:43.354656","MEAN_MOTION":13.24421683,"ECCENTRICITY":0.0002055,"INCLINATION":86.502,"RA_OF_ASC_NODE":18.4568,"ARG_OF_PERICENTER":85.5871,"MEAN_ANOMALY":274.5498,"EPHEMERIS_TYPE":0,"CLASSIFICATION_TYPE":"U","NORAD_CAT_ID":62326,"ELEMENT_SET_NO":999,"REV_AT_EPOCH":5879,"BSTAR":8.3766849e-5,"MEAN_MOTION_DOT":5.1e-7,"MEAN_MOTION_DDOT":0},{"OBJECT_NAME":"HULIANWANG DIGUI-05","OBJECT_ID":"2024-240E","EPOCH":"2026-03-04T13:37:54.755904","MEAN_MOTION":13.24420957,"ECCENTRICITY":0.00020802,"INCLINATION":86.5072,"RA_OF_ASC_NODE":18.6785,"ARG_OF_PERICENTER":84.6828,"MEAN_ANOMALY":275.4543,"EPHEMERIS_TYPE":0,"CLASSIFICATION_TYPE":"U","NORAD_CAT_ID":62327,"ELEMENT_SET_NO":999,"REV_AT_EPOCH":5879,"BSTAR":7.6781438e-5,"MEAN_MOTION_DOT":4.8e-7,"MEAN_MOTION_DDOT":0},{"OBJECT_NAME":"HULIANWANG DIGUI-06","OBJECT_ID":"2024-240F","EPOCH":"2026-03-04T15:04:48.046368","MEAN_MOTION":13.24422878,"ECCENTRICITY":0.00020297,"INCLINATION":86.5011,"RA_OF_ASC_NODE":18.3773,"ARG_OF_PERICENTER":89.0918,"MEAN_ANOMALY":271.0449,"EPHEMERIS_TYPE":0,"CLASSIFICATION_TYPE":"U","NORAD_CAT_ID":62328,"ELEMENT_SET_NO":999,"REV_AT_EPOCH":5880,"BSTAR":2.6828748e-5,"MEAN_MOTION_DOT":2.6e-7,"MEAN_MOTION_DDOT":0},{"OBJECT_NAME":"HULIANWANG DIGUI-07","OBJECT_ID":"2024-240G","EPOCH":"2026-03-04T14:54:03.606912","MEAN_MOTION":13.2442101,"ECCENTRICITY":0.00020101,"INCLINATION":86.4982,"RA_OF_ASC_NODE":18.2482,"ARG_OF_PERICENTER":87.3214,"MEAN_ANOMALY":272.815,"EPHEMERIS_TYPE":0,"CLASSIFICATION_TYPE":"U","NORAD_CAT_ID":62329,"ELEMENT_SET_NO":999,"REV_AT_EPOCH":5880,"BSTAR":2.3736587e-5,"MEAN_MOTION_DOT":2.5e-7,"MEAN_MOTION_DDOT":0},{"OBJECT_NAME":"HULIANWANG DIGUI-08","OBJECT_ID":"2024-240H","EPOCH":"2026-03-04T13:27:03.460608","MEAN_MOTION":13.24420865,"ECCENTRICITY":0.00021256,"INCLINATION":86.5064,"RA_OF_ASC_NODE":18.6384,"ARG_OF_PERICENTER":86.037,"MEAN_ANOMALY":274.1007,"EPHEMERIS_TYPE":0,"CLASSIFICATION_TYPE":"U","NORAD_CAT_ID":62330,"ELEMENT_SET_NO":999,"REV_AT_EPOCH":5879,"BSTAR":4.4898514e-5,"MEAN_MOTION_DOT":3.4e-7,"MEAN_MOTION_DDOT":0},{"OBJECT_NAME":"HULIANWANG DIGUI-09","OBJECT_ID":"2024-240J","EPOCH":"2026-03-04T14:43:04.745568","MEAN_MOTION":13.24422243,"ECCENTRICITY":0.00019627,"INCLINATION":86.5031,"RA_OF_ASC_NODE":18.5161,"ARG_OF_PERICENTER":89.2062,"MEAN_ANOMALY":270.9297,"EPHEMERIS_TYPE":0,"CLASSIFICATION_TYPE":"U","NORAD_CAT_ID":62331,"ELEMENT_SET_NO":999,"REV_AT_EPOCH":5879,"BSTAR":3.7766426e-5,"MEAN_MOTION_DOT":3.1e-7,"MEAN_MOTION_DDOT":0},{"OBJECT_NAME":"HULIANWANG DIGUI-10","OBJECT_ID":"2024-240K","EPOCH":"2026-03-04T14:32:15.485856","MEAN_MOTION":13.24421639,"ECCENTRICITY":0.00019613,"INCLINATION":86.5061,"RA_OF_ASC_NODE":18.6409,"ARG_OF_PERICENTER":91.3046,"MEAN_ANOMALY":268.8313,"EPHEMERIS_TYPE":0,"CLASSIFICATION_TYPE":"U","NORAD_CAT_ID":62332,"ELEMENT_SET_NO":999,"REV_AT_EPOCH":5879,"BSTAR":7.4880216e-5,"MEAN_MOTION_DOT":4.7e-7,"MEAN_MOTION_DDOT":0},{"OBJECT_NAME":"HULIANWANG DIGUI-11","OBJECT_ID":"2025-030A","EPOCH":"2026-03-04T14:03:09.407520","MEAN_MOTION":13.29337713,"ECCENTRICITY":7.504e-5,"INCLINATION":49.9992,"RA_OF_ASC_NODE":251.0054,"ARG_OF_PERICENTER":165.5809,"MEAN_ANOMALY":194.5085,"EPHEMERIS_TYPE":0,"CLASSIFICATION_TYPE":"U","NORAD_CAT_ID":62971,"ELEMENT_SET_NO":999,"REV_AT_EPOCH":5194,"BSTAR":7.8331752e-5,"MEAN_MOTION_DOT":-8.8e-7,"MEAN_MOTION_DDOT":0},{"OBJECT_NAME":"HULIANWANG DIGUI-12","OBJECT_ID":"2025-030B","EPOCH":"2026-03-04T14:15:01.494720","MEAN_MOTION":13.29339892,"ECCENTRICITY":8.829e-5,"INCLINATION":50.0008,"RA_OF_ASC_NODE":251.0948,"ARG_OF_PERICENTER":160.1332,"MEAN_ANOMALY":199.9575,"EPHEMERIS_TYPE":0,"CLASSIFICATION_TYPE":"U","NORAD_CAT_ID":62972,"ELEMENT_SET_NO":999,"REV_AT_EPOCH":5194,"BSTAR":7.2193294e-5,"MEAN_MOTION_DOT":-9.1e-7,"MEAN_MOTION_DDOT":0},{"OBJECT_NAME":"HULIANWANG DIGUI-13","OBJECT_ID":"2025-030C","EPOCH":"2026-03-04T13:51:04.912416","MEAN_MOTION":13.29337824,"ECCENTRICITY":7.086e-5,"INCLINATION":50.0011,"RA_OF_ASC_NODE":251.02,"ARG_OF_PERICENTER":151.5323,"MEAN_ANOMALY":208.5588,"EPHEMERIS_TYPE":0,"CLASSIFICATION_TYPE":"U","NORAD_CAT_ID":62973,"ELEMENT_SET_NO":999,"REV_AT_EPOCH":5194,"BSTAR":7.1942642e-5,"MEAN_MOTION_DOT":-9.1e-7,"MEAN_MOTION_DDOT":0},{"OBJECT_NAME":"HULIANWANG DIGUI-14","OBJECT_ID":"2025-030D","EPOCH":"2026-03-04T13:15:04.817376","MEAN_MOTION":13.29337669,"ECCENTRICITY":8.04e-5,"INCLINATION":50.0017,"RA_OF_ASC_NODE":250.9078,"ARG_OF_PERICENTER":151.7135,"MEAN_ANOMALY":208.3781,"EPHEMERIS_TYPE":0,"CLASSIFICATION_TYPE":"U","NORAD_CAT_ID":62974,"ELEMENT_SET_NO":999,"REV_AT_EPOCH":5194,"BSTAR":7.7180177e-5,"MEAN_MOTION_DOT":-8.8e-7,"MEAN_MOTION_DDOT":0},{"OBJECT_NAME":"HULIANWANG DIGUI-15","OBJECT_ID":"2025-030E","EPOCH":"2026-03-04T13:39:06.238944","MEAN_MOTION":13.29337802,"ECCENTRICITY":6.776e-5,"INCLINATION":50.0012,"RA_OF_ASC_NODE":250.9794,"ARG_OF_PERICENTER":157.9359,"MEAN_ANOMALY":202.1542,"EPHEMERIS_TYPE":0,"CLASSIFICATION_TYPE":"U","NORAD_CAT_ID":62975,"ELEMENT_SET_NO":999,"REV_AT_EPOCH":5194,"BSTAR":8.0127073e-5,"MEAN_MOTION_DOT":-8.7e-7,"MEAN_MOTION_DDOT":0},{"OBJECT_NAME":"HULIANWANG DIGUI-16","OBJECT_ID":"2025-030F","EPOCH":"2026-03-04T13:02:58.770528","MEAN_MOTION":13.29338376,"ECCENTRICITY":7.973e-5,"INCLINATION":50.0034,"RA_OF_ASC_NODE":250.9169,"ARG_OF_PERICENTER":148.5994,"MEAN_ANOMALY":211.4926,"EPHEMERIS_TYPE":0,"CLASSIFICATION_TYPE":"U","NORAD_CAT_ID":62976,"ELEMENT_SET_NO":999,"REV_AT_EPOCH":5194,"BSTAR":6.5753119e-5,"MEAN_MOTION_DOT":-9.4e-7,"MEAN_MOTION_DDOT":0}]
